      2.10          N: GNSS NAV DATA                        RINEX VERSION / TYPE
fic2rin                                 04/30/2018 00:06:27 PGM / RUN BY / DATE
                                                            END OF HEADER
13 18  4 29 12  0  0.0-9.483471512794e-05 2.273736754432e-13 0.000000000000e+00
    6.200000000000e+01 3.878125000000e+01 4.148387082688e-09 2.614254784217e+00
    1.959502696991e-06 3.462987951934e-03 1.257844269276e-05 5.153665288925e+03
    4.320000000000e+04 3.539025783539e-08-3.768854258765e-02-4.284083843231e-08
    9.690688521903e-01 1.410625000000e+02 1.593266909413e+00-7.674248234671e-09
   -8.678932940965e-11 1.000000000000e+00 1.999000000000e+03 0.000000000000e+00
    2.400000000000e+00 0.000000000000e+00-1.117587089539e-08 6.200000000000e+01
    3.600600000000e+04 4.000000000000e+00
31 18  4 29 12  0  0.0 1.251483336091e-04-2.614797267597e-12 0.000000000000e+00
    1.600000000000e+01 9.762500000000e+01 4.765198489644e-09 9.589101998302e-01
    5.196779966354e-06 8.766853483394e-03 4.202127456665e-06 5.153648735046e+03
    4.320000000000e+04 1.564621925354e-07 9.209514694396e-01 1.192092895508e-07
    9.635358546330e-01 2.947500000000e+02-1.323169508921e-01-8.377134655569e-09
    2.196520065306e-10 1.000000000000e+00 1.999000000000e+03 0.000000000000e+00
    2.400000000000e+00 0.000000000000e+00-1.350417733192e-08 1.600000000000e+01
    3.600600000000e+04 4.000000000000e+00
22 18  4 29 12  0  0.0-3.744242712855e-04-1.296029950026e-11 0.000000000000e+00
    7.000000000000e+01-4.715625000000e+01 5.785955293977e-09-2.912276549334e+00
   -2.682209014893e-06 7.383508724160e-03 4.474073648453e-06 5.153820657730e+03
    4.320000000000e+04 1.601874828339e-07-1.261317942567e+00 1.024454832077e-07
    9.246001831603e-01 2.693750000000e+02-1.554130472915e+00-8.682504518307e-09
   -2.646538810393e-10 1.000000000000e+00 1.999000000000e+03 0.000000000000e+00
    2.400000000000e+00 0.000000000000e+00-1.769512891769e-08 7.000000000000e+01
    3.600600000000e+04 4.000000000000e+00
24 18  4 29 12  0  0.0-4.909979179502e-05-4.547473508865e-13 0.000000000000e+00
    3.600000000000e+01 1.075937500000e+02 5.175929883970e-09 2.087577347747e+00
    5.524605512619e-06 6.921722437255e-03 5.397945642471e-06 5.153652782440e+03
    4.320000000000e+04-2.458691596985e-07 8.492899855254e-01 3.352761268616e-08
    9.420061565547e-01 2.658437500000e+02 5.442163130453e-01-8.495711023322e-09
    3.478716331070e-10 1.000000000000e+00 1.999000000000e+03 0.000000000000e+00
    3.400000000000e+00 0.000000000000e+00 2.793967723846e-09 3.600000000000e+01
    3.600600000000e+04 4.000000000000e+00
25 18  4 29 12  0  0.0-5.771932192147e-04-5.911715561524e-12 0.000000000000e+00
    7.100000000000e+01-7.059375000000e+01 4.525902807733e-09 8.800364376214e-02
   -3.639608621597e-06 7.486308342777e-03 3.369525074959e-06 5.153652755737e+03
    4.320000000000e+04-1.303851604462e-08 1.941636545070e+00 7.264316082001e-08
    9.742248864798e-01 3.186875000000e+02 8.500354227473e-01-8.422493687812e-09
   -4.471614832135e-10 1.000000000000e+00 1.999000000000e+03 0.000000000000e+00
    2.400000000000e+00 0.000000000000e+00 6.053596735001e-09 7.100000000000e+01
    3.600600000000e+04 4.000000000000e+00
23 18  4 29 12  0  0.0-2.175648696721e-04 3.410605131648e-13 0.000000000000e+00
    5.800000000000e+01 2.296875000000e+01 4.641979071347e-09 2.708336823340e+00
    1.130625605583e-06 1.234213844873e-02 1.376122236252e-05 5.153566032410e+03
    4.320000000000e+04-1.862645149231e-08-1.702515870220e-01-1.974403858185e-07
    9.440907197280e-01 1.053437500000e+02-2.367752695798e+00-7.785324290006e-09
   -2.060800126311e-10 1.000000000000e+00 1.999000000000e+03 0.000000000000e+00
    2.400000000000e+00 0.000000000000e+00-2.002343535423e-08 5.800000000000e+01
    3.600600000000e+04 4.000000000000e+00
19 18  4 29 12  0  0.0-4.401388578117e-04 2.842170943040e-12 0.000000000000e+00
    7.100000000000e+01-4.378125000000e+01 3.636580049585e-09 6.053194124747e-01
   -2.112239599228e-06 9.838070138358e-03 1.307576894760e-05 5.153715801239e+03
    4.320000000000e+04-2.309679985046e-07 3.082103885724e+00-4.842877388000e-08
    9.804068184050e-01 1.442500000000e+02 1.164194761545e+00-7.618888785871e-09
    8.928943354902e-12 1.000000000000e+00 1.999000000000e+03 0.000000000000e+00
    2.400000000000e+00 0.000000000000e+00-1.536682248116e-08 7.100000000000e+01
    3.600600000000e+04 4.000000000000e+00
32 18  4 29 12  0  0.0-5.155922845006e-04 4.320099833421e-12 0.000000000000e+00
    5.200000000000e+01 2.946875000000e+01 4.445542317539e-09-1.535309974772e+00
    1.551583409309e-06 2.022791770287e-03 1.229904592037e-05 5.153664718628e+03
    4.320000000000e+04 1.490116119385e-08-1.640587022292e-01 2.793967723846e-08
    9.576550131924e-01 1.410312500000e+02-2.591866966188e+00-7.850326997630e-09
   -1.417916204758e-10 1.000000000000e+00 1.999000000000e+03 0.000000000000e+00
    2.400000000000e+00 0.000000000000e+00 4.656612873077e-10 5.200000000000e+01
    3.600600000000e+04 4.000000000000e+00
26 18  4 29 12  0  0.0-1.662629656494e-04 1.284661266254e-11 0.000000000000e+00
    5.400000000000e+01-7.768750000000e+01 4.907704425588e-09-4.503384431581e-01
   -4.146248102188e-06 2.793032908812e-03 3.278255462646e-06 5.153644321442e+03
    4.320000000000e+04 2.607703208923e-08 1.920173052812e+00 0.000000000000e+00
    9.557725228934e-01 3.141875000000e+02 1.177103253704e-01-8.526069430729e-09
   -4.632335812523e-10 1.000000000000e+00 1.999000000000e+03 0.000000000000e+00
    2.400000000000e+00 0.000000000000e+00 7.450580596924e-09 5.400000000000e+01
    3.600600000000e+04 4.000000000000e+00
16 18  4 29 12  0  0.0 2.632383257151e-05-1.136868377216e-12 0.000000000000e+00
    5.100000000000e+01-9.100000000000e+01 4.086955952406e-09-1.341928840997e+00
   -4.708766937256e-06 1.005197071936e-02 4.265457391739e-06 5.153620458603e+03
    4.320000000000e+04 1.359730958939e-07 2.019981721330e+00-8.754432201385e-08
    9.870355255115e-01 3.098750000000e+02 5.076885081785e-01-8.038191965817e-09
   -4.396611707954e-10 1.000000000000e+00 1.999000000000e+03 0.000000000000e+00
    2.400000000000e+00 0.000000000000e+00-1.071020960808e-08 5.100000000000e+01
    3.600600000000e+04 4.000000000000e+00
10 18  4 29 12  0  0.0 1.820712350309e-04 2.273736754432e-12 0.000000000000e+00
    6.900000000000e+01-4.678125000000e+01 4.917704842146e-09-2.752870628797e-01
   -2.343207597733e-06 3.477327409200e-03 5.492940545082e-06 5.153659921646e+03
    4.320000000000e+04 5.587935447693e-09-1.206254607220e+00 4.284083843231e-08
    9.606673590115e-01 2.732812500000e+02-2.750056739519e+00-8.313560578882e-09
   -3.046555472693e-10 1.000000000000e+00 1.999000000000e+03 0.000000000000e+00
    2.400000000000e+00 0.000000000000e+00 1.862645149231e-09 6.900000000000e+01
    3.600600000000e+04 4.000000000000e+00
 9 18  4 29 12  0  0.0 5.126162432134e-04 1.023181539495e-12 0.000000000000e+00
    6.800000000000e+01 2.537500000000e+01 4.542689221240e-09-2.097697506344e+00
    1.385807991028e-06 9.978221496567e-04 1.349113881588e-05 5.153644330978e+03
    4.320000000000e+04 3.725290298462e-09-1.688837015641e-01-2.421438694000e-08
    9.532634208935e-01 1.172812500000e+02 1.838401005581e+00-7.903186342291e-09
   -1.835790753768e-10 1.000000000000e+00 1.999000000000e+03 0.000000000000e+00
    2.400000000000e+00 0.000000000000e+00 9.313225746155e-10 6.800000000000e+01
    3.600600000000e+04 4.000000000000e+00
30 18  4 29 12  0  0.0 7.962854579091e-05-4.092726157978e-12 0.000000000000e+00
    8.200000000000e+01 1.079375000000e+02 5.222360389415e-09 1.281139629659e+00
    5.777925252914e-06 3.294121357612e-03 4.321336746216e-06 5.153749069214e+03
    4.320000000000e+04 7.636845111847e-08 9.425600802450e-01-5.215406417847e-08
    9.444738565100e-01 2.837187500000e+02-3.109856775869e+00-8.685718937915e-09
    2.850118718885e-10 1.000000000000e+00 1.999000000000e+03 0.000000000000e+00
    2.400000000000e+00 0.000000000000e+00 3.725290298462e-09 8.200000000000e+01
    3.600600000000e+04 4.000000000000e+00
20 18  4 29 12  0  0.0 5.069673061371e-04 9.094947017729e-13 0.000000000000e+00
    7.400000000000e+01-3.940625000000e+01 5.709523538859e-09 2.266143551095e+00
   -2.132728695869e-06 4.251346574165e-03 4.254281520844e-06 5.154831432343e+03
    4.320000000000e+04 4.842877388000e-08-1.311381117544e+00-4.470348358154e-08
    9.278369186691e-01 2.798750000000e+02 1.929912960964e+00-8.660717896521e-09
   -2.614394614315e-10 1.000000000000e+00 1.999000000000e+03 0.000000000000e+00
    2.400000000000e+00 0.000000000000e+00-8.381903171539e-09 7.400000000000e+01
    3.600600000000e+04 4.000000000000e+00
29 18  4 29 12  0  0.0 4.583736881614e-04-6.252776074689e-12 0.000000000000e+00
    1.730000000000e+02-4.512500000000e+01 3.616579216470e-09-1.145615110919e+00
   -2.406537532806e-06 7.144171977416e-04 1.219846308231e-05 5.153709968567e+03
    4.320000000000e+04 3.725290298462e-08 3.045641632753e+00 1.490116119385e-08
    9.841737768682e-01 1.573125000000e+02 1.014819486574e+00-7.556386182387e-09
    2.464388365953e-11 1.000000000000e+00 1.999000000000e+03 0.000000000000e+00
    3.400000000000e+00 0.000000000000e+00-1.024454832077e-08 1.730000000000e+02
    3.600600000000e+04 4.000000000000e+00
28 18  4 29 12  0  0.0 7.107183337212e-04 3.410605131648e-12 0.000000000000e+00
    8.900000000000e+01-9.162500000000e+01 4.276963866998e-09-1.385239863452e+00
   -4.537403583527e-06 1.950664969627e-02 4.353001713753e-06 5.153674219131e+03
    4.320000000000e+04-1.620501279831e-07 2.024252543889e+00 4.749745130539e-07
    9.859031684014e-01 3.091250000000e+02-1.522401653774e+00-8.286416591083e-09
   -5.635949045614e-10 1.000000000000e+00 1.999000000000e+03 0.000000000000e+00
    4.850000000000e+00 0.000000000000e+00-1.117587089539e-08 8.900000000000e+01
    3.600600000000e+04 4.000000000000e+00
